STARLINK-1303           
1 45396U 20019AN  24304.75703317 -.00000322  00000+0 -26929-5 0  9996
2 45396  53.0548 208.4585 0002206  92.0060 268.1182 15.06392869255125
STARLINK-1307           
1 45397U 20019AP  24304.43635464  .00033055  00000+0  22285-2 0  9994
2 45397  53.0554 209.8952 0002748  78.8426 281.2872 15.06384434255182
STARLINK-1312           
1 45398U 20019AQ  24304.76072094  .00013881  00000+0  94917-3 0  9992
2 45398  53.0555 208.4425 0001014  62.6662 297.4430 15.06390633255167
STARLINK-1255           
1 45399U 20019AR  24304.73584311  .00048320  00000+0  32373-2 0  9993
2 45399  53.0541 198.5548 0001108  67.2369 292.8737 15.06438457255354
STARLINK-1213           
1 45400U 20019AS  24304.58334491  .00207649  00000+0  30819-2 0  9995
2 45400  53.0748 127.7510 0009020 122.1794 160.5500 15.53955942  5912
STARLINK-1256           
1 45401U 20019AT  24304.41515220 -.00008533  00000+0 -55463-3 0  9995
2 45401  53.0549 199.9895 0002005  77.5453 282.5761 15.06398008255306
STARLINK-1259           
1 45403U 20019AV  24304.55891887 -.00006445  00000+0 -41458-3 0  9997
2 45403  53.0535 199.3497 0001044 100.1362 259.9745 15.06366577255327
STARLINK-1260           
1 45404U 20019AW  24304.43727790  .00010890  00000+0  74907-3 0  9998
2 45404  53.0542 199.8974 0001736  72.3981 287.7197 15.06389430255217
STARLINK-1263           
1 45405U 20019AX  24304.68792744 -.00001015  00000+0 -49321-4 0  9991
2 45405  53.0552 198.7727 0000983  91.6603 268.4498 15.06385303255250
STARLINK-1265           
1 45406U 20019AY  24304.42990177 -.00001466  00000+0 -79614-4 0  9992
2 45406  53.0543 199.9240 0000895  88.3208 271.7883 15.06388631255218
STARLINK-1275           
1 45407U 20019AZ  24304.35564760  .00115295  00000+0  31506-2 0  9990
2 45407  53.0552 169.2054 0003677 144.0924 216.0326 15.36515767255644
STARLINK-1278           
1 45408U 20019BA  24304.52297369  .00046643  00000+0  31258-2 0  9992
2 45408  53.0543 229.5099 0002027  74.8135 285.3078 15.06444694254814
STARLINK-1282           
1 45409U 20019BB  24304.45202632 -.00002358  00000+0 -13949-3 0  9999
2 45409  53.0530 199.8289 0002159  84.4572 275.6663 15.06383378255228
STARLINK-1293           
1 45411U 20019BD  24304.73215459  .00025173  00000+0  17028-2 0  9993
2 45411  53.0539 198.5686 0002173 102.5408 257.5824 15.06399248255268
STARLINK-1296           
1 45412U 20019BE  24304.43359762  .00020522  00000+0  13921-2 0  9998
2 45412  53.0540 199.9120 0002163  88.3728 271.7509 15.06412535255212
STARLINK-1298           
1 45413U 20019BF  24304.72846396  .00015909  00000+0  10848-2 0  9993
2 45413  53.0548 198.5844 0002255 106.0767 254.0470 15.06389329255352
STARLINK-1309           
1 45414U 20019BG  24304.44833684  .00008534  00000+0  59129-3 0  9991
2 45414  53.0543 199.8421 0002846  92.1175 268.0140 15.06388926255202
STARLINK-1316           
1 45415U 20019BH  24304.73952257  .00047196  00000+0  31650-2 0  9997
2 45415  53.0552 198.5390 0004959  77.4566 282.6977 15.06407328255287
STARLINK-1318           
1 45416U 20019BJ  24304.44096093  .00026041  00000+0  17620-2 0  9990
2 45416  53.0533 199.8775 0001323  95.6198 264.4942 15.06371447255229
STARLINK-1286           
1 45417U 20019BK  24304.51190646  .00037668  00000+0  25342-2 0  9995
2 45417  53.0540 229.5537 0001296  97.7634 262.3502 15.06400028255083
STARLINK-1308           
1 45419U 20019BM  24304.11013395  .00030180  00000+0  20334-2 0  9996
2 45419  53.0549 231.3557 0001089  74.7191 285.3918 15.06453472254772
STARLINK-1329           
1 45531U 20025A   24304.34420037  .00008719  00000+0  60318-3 0  9998
2 45531  53.0531 170.3068 0000950  83.0283 277.0814 15.06420572250435
STARLINK-1338           
1 45532U 20025B   24304.35526898 -.00006166  00000+0 -39567-3 0  9990
2 45532  53.0523 170.2568 0001463  94.2123 265.9033 15.06377504250433
STARLINK-1341           
1 45534U 20025D   24304.36631464  .00005123  00000+0  36259-3 0  9994
2 45534  53.0532 170.2053 0001507  96.1462 263.9699 15.06399116250439
STARLINK-1350           
1 45535U 20025E   24304.65014699  .00016297  00000+0  11107-2 0  9990
2 45535  53.0535 168.9391 0000756  57.9272 302.1790 15.06390817249896
STARLINK-1352           
1 45536U 20025F   24304.05669984  .00026027  00000+0  17587-2 0  9998
2 45536  53.0543 171.6027 0001466  59.3781 300.7352 15.06422065250388
STARLINK-1362           
1 45538U 20025H   24304.65284807  .00016537  00000+0  11264-2 0  9994
2 45538  53.0528 168.6413 0001415 107.2377 252.8767 15.06402023249899
STARLINK-1368           
1 45540U 20025K   24304.65750990  .00009479  00000+0  65435-3 0  9995
2 45540  53.0541 168.9074 0002302  88.0996 272.0256 15.06403183249897
STARLINK-1369           
1 45541U 20025L   24303.93138543  .00025094  00000+0  16972-2 0  9992
2 45541  53.0536 172.1637 0001446  57.8262 302.2867 15.06407194249780
STARLINK-1371           
1 45542U 20025M   24304.36264269  .00007881  00000+0  54737-3 0  9992
2 45542  53.0531 170.2293 0002346  78.9308 281.1945 15.06399566250437
STARLINK-1372           
1 45543U 20025N   24304.33314677  .00016330  00000+0  11123-2 0  9999
2 45543  53.0538 170.3599 0001085 102.5362 257.5748 15.06411031249526
STARLINK-1373           
1 45544U 20025P   24304.88236015  .00012210  00000+0  83696-3 0  9997
2 45544  53.0529 167.8956 0001157  94.9050 265.2071 15.06407932249916
STARLINK-1374           
1 45545U 20025Q   24304.63539417  .00002330  00000+0  17528-3 0  9996
2 45545  53.0537 169.0019 0001720  94.6223 265.4963 15.06390867249892
STARLINK-1375           
1 45546U 20025R   24304.64645539  .00019411  00000+0  13184-2 0  9992
2 45546  53.0539 168.9545 0001076  77.9490 282.1619 15.06401833249891
STARLINK-1378           
1 45548U 20025T   24304.35426307  .00004385  00000+0  31303-3 0  9990
2 45548  53.0527 169.7557 0002034  82.5975 277.5245 15.06406319250436
STARLINK-1390           
1 45550U 20025V   24304.32848453  .00021299  00000+0  14437-2 0  9991
2 45550  53.0528 170.1129 0000895 103.4646 256.6442 15.06420061250428
STARLINK-1294           
1 45551U 20025W   24304.29074952  .00005159  00000+0  36490-3 0  9994
2 45551  53.0523 150.5521 0001136  97.9692 262.1426 15.06407041250099
STARLINK-1323           
1 45553U 20025Y   24304.30181748  .00007396  00000+0  51487-3 0  9998
2 45553  53.0520 150.5005 0001682  88.9544 271.1637 15.06401575249411
STARLINK-1325           
1 45554U 20025Z   24304.26575396  .00018413  00000+0  11419-2 0  9992
2 45554  53.0517 149.6636 0002860 135.9867 224.1352 15.09789358250715
STARLINK-1327           
1 45555U 20025AA  24304.85471201  .00001843  00000+0  14260-3 0  9995
2 45555  53.0515 148.0124 0001671  84.8791 275.2389 15.06402205250184
STARLINK-1334           
1 45556U 20025AB  24304.56351806  .00004630  00000+0  32960-3 0  9996
2 45556  53.0511 149.3278 0001576 101.2186 258.8980 15.06393557250746
STARLINK-1336           
1 45557U 20025AC  24304.83628055  .00003559  00000+0  25773-3 0  9993
2 45557  53.0534 148.0992 0001600  90.3672 269.7501 15.06395465250185
STARLINK-1342           
1 45558U 20025AD  24304.60406830  .00000440  00000+0  48480-4 0  9991
2 45558  53.0546 149.1408 0001642 100.8923 259.2251 15.06391674250741
STARLINK-1346           
1 45560U 20025AF  24304.53499781  .00007635  00000+0  53086-3 0  9993
2 45560  53.0520 139.8805 0002338  87.8759 272.2498 15.06405069250873
STARLINK-1354           
1 45562U 20025AH  24304.91667824  .01278367  00000+0  30087-1 0  9999
2 45562  53.0550 145.3087 0001194  74.8899 114.3067 15.38768742250224
STARLINK-1355           
1 45563U 20025AJ  24304.59670818  .00006569  00000+0  45947-3 0  9996
2 45563  53.0532 149.1763 0001401 102.2901 257.8245 15.06398456250147
STARLINK-1356           
1 45564U 20025AK  24304.59300719  .00008539  00000+0  59142-3 0  9998
2 45564  53.0531 149.1936 0001366  89.5533 270.5612 15.06402313250145
STARLINK-1357           
1 45565U 20025AL  24304.85102488  .00002538  00000+0  18924-3 0  9997
2 45565  53.0537 148.0354 0001731  95.1261 264.9925 15.06401438250197
STARLINK-1358           
1 45566U 20025AM  24304.86576310  .00003754  00000+0  27083-3 0  9995
2 45566  53.0536 147.9719 0001764 101.4338 258.6849 15.06397611250183
STARLINK-1361           
1 45567U 20025AN  24304.87682793  .00002340  00000+0  17594-3 0  9996
2 45567  53.0524 147.9223 0001319  78.9503 281.1634 15.06398774250183
STARLINK-1363           
1 45568U 20025AP  24304.55986400 -.00004822  00000+0 -30517-3 0  9993
2 45568  53.0515 149.5841 0000917  86.6480 273.4614 15.06383582250139
STARLINK-1366           
1 45569U 20025AQ  24304.28338708  .00006727  00000+0  47005-3 0  9990
2 45569  53.0522 150.5861 0001275 101.8611 258.2521 15.06401118250691
STARLINK-1376           
1 45570U 20025AR  24304.87313353 -.00000303  00000+0 -14362-5 0  9994
2 45570  53.0542 147.9378 0001707  97.7576 262.3607 15.06395687250190
STARLINK-1320           
1 45572U 20025AT  24304.40351642  .00033320  00000+0  22189-2 0  9994
2 45572  53.0523 135.0394 0001308  76.8811 283.2324 15.06837863250931
STARLINK-1321           
1 45573U 20025AU  24304.26218383  .00001451  00000+0  11629-3 0  9991
2 45573  53.0523 140.6779 0001414  94.3208 265.7943 15.06402996250537
STARLINK-1328           
1 45576U 20025AX  24304.84456316  .00001459  00000+0  11681-3 0  9994
2 45576  53.0534 138.0632 0001600  83.3009 276.8162 15.06401406250323
STARLINK-1331           
1 45578U 20025AZ  24304.83719588  .00004531  00000+0  32286-3 0  9996
2 45578  53.0529 138.0907 0001461  79.9784 280.1370 15.06406007250321
STARLINK-1332           
1 45579U 20025BA  24304.57919615  .00002811  00000+0  20753-3 0  9996
2 45579  53.0535  99.4168 0001512 107.5448 252.5706 15.06401186250857
STARLINK-1333           
1 45580U 20025BB  24304.57826105  .00007914  00000+0  54949-3 0  9992
2 45580  53.0520 149.2592 0001792  97.4405 262.6787 15.06408442250749
